{"type":"FeatureCollection","name":"au-states","attribution":"Simplified Australian states/territories for web choropleth. Derived from public GeoJSON at rowanhogan/australian-states (Australian state boundaries commonly sourced from ABS/Geoscape Administrative Boundaries, CC BY 4.0). Reduced vertex count for display only; not a legal cadastral boundary.","features":[{"type":"Feature","properties":{"STATE_CODE":"WA","STATE_NAME":"Western Australia","STATE_ABBR":"WA"},"geometry":{"type":"MultiPolygon","coordinates":[[[[113.3942,-26.393],[113.3364,-26.3004],[113.3865,-26.2127],[113.3637,-26.0175],[113.5066,-26.3639],[113.4865,-26.4848],[113.5372,-26.2795],[113.5981,-26.6142],[113.6306,-26.4633],[113.664,-26.6745],[113.7049,-26.6621],[113.6868,-26.6017],[113.8077,-26.611],[113.8829,-26.5085],[113.8807,-26.3354],[113.5803,-26.0972],[113.5591,-25.9464],[113.4611,-25.8094],[113.4724,-25.7093],[113.4693,-25.7855],[113.4145,-25.7247],[113.5111,-25.5033],[113.5252,-25.6078],[113.7619,-25.8786],[113.7032,-26.1998],[113.8133,-26.1788],[113.8837,-26.0602],[113.8772,-25.9451],[113.9729,-26.3425],[114.0768,-26.4666],[114.2377,-26.3128],[114.1883,-26.1803],[114.2235,-26.119],[114.2547,-26.1449],[114.1947,-25.9836],[114.2653,-25.9821],[114.2668,-25.8877],[114.0042,-25.6185],[113.8171,-25.1736],[113.666,-25.0227],[113.6919,-24.9285],[113.6444,-24.8781],[113.7069,-24.8507],[113.6175,-24.8586],[113.6232,-24.746],[113.407,-24.4842],[113.3902,-24.224],[113.4433,-24.1817],[113.4222,-24.0429],[113.5319,-23.7748],[113.7781,-23.4781],[113.7605,-23.1213],[113.8262,-22.956],[113.7553,-22.7562],[113.6705,-22.7171],[113.6541,-22.5788],[114.0239,-21.8512],[114.191,-21.8146],[114.0803,-22.1541],[114.1158,-22.3312],[114.1785,-22.3054],[114.1221,-22.4158],[114.1438,-22.5381],[114.2824,-22.4338],[114.3403,-22.5163],[114.4038,-22.4694],[114.407,-22.3509],[114.4516,-22.3626],[114.4087,-22.3312],[114.4336,-22.295],[114.4609,-22.3293],[114.4532,-22.208],[114.5005,-22.2205],[114.4557,-22.1595],[114.508,-22.1835],[114.5173,-22.0665],[114.6643,-21.9105],[114.6481,-21.8445],[114.6852,-21.8678],[114.9143,-21.6883],[115.1422,-21.659],[115.4573,-21.5085],[115.4924,-21.5458],[115.475,-21.5058],[115.5109,-21.5248],[115.5097,-21.4579],[115.5654,-21.4573],[115.5509,-21.4131],[115.6525,-21.3157],[115.8312,-21.2514],[115.9182,-21.0788],[116.1461,-21.0127],[116.2267,-20.8835],[116.2046,-20.8338],[116.286,-20.8813],[116.459,-20.8427],[116.5259,-20.7529],[116.6052,-20.7538],[116.579,-20.6921],[116.6368,-20.6747],[116.6023,-20.728],[116.6638,-20.7414],[116.6889,-20.7058],[116.6425,-20.7047],[116.7652,-20.6331],[116.8112,-20.5292],[116.8675,-20.5262],[116.7873,-20.6653],[116.8282,-20.7087],[116.9199,-20.7407],[116.9902,-20.6582],[117.1282,-20.6544],[117.1828,-20.5923],[117.1719,-20.7006],[117.3475,-20.7357],[117.3497,-20.779],[117.3698,-20.7342],[117.3818,-20.7844],[117.3952,-20.7306],[117.4574,-20.7572],[117.6307,-20.6638],[117.6563,-20.7155],[117.6804,-20.6666],[117.8097,-20.6742],[117.7743,-20.6635],[117.8817,-20.552],[117.975,-20.5505],[117.9409,-20.4799],[118.1816,-20.3364],[118.1962,-20.4038],[118.3461,-20.3299],[118.3636,-20.374],[118.562,-20.2944],[118.5786,-20.3577],[118.6296,-20.3344],[118.573,-20.3162],[118.598,-20.2866],[118.6657,-20.3429],[118.8453,-20.2863],[118.8421,-20.2306],[118.8827,-20.2611],[118.8965,-20.1678],[119.0997,-19.9593],[119.2071,-20.0237],[119.1716,-19.9566],[119.471,-20.0057],[119.5693,-20.0803],[119.7009,-19.9951],[119.7249,-20.0262],[119.7641,-19.9556],[120.1959,-19.9139],[120.631,-19.77],[121.1139,-19.5386],[121.5111,-19.0939],[121.5532,-18.9435],[121.6532,-18.8359],[121.6181,-18.7063],[121.793,-18.6572],[121.7294,-18.5757],[121.8152,-18.4511],[121.9467,-18.4393],[122.3703,-18.1164],[122.3781,-17.9898],[122.1753,-17.974],[122.2129,-17.8737],[122.1452,-17.5604],[122.1732,-17.2636],[122.2516,-17.1576],[122.319,-17.159],[122.2532,-17.1198],[122.3664,-16.9976],[122.4697,-16.9363],[122.431,-16.9834],[122.4811,-16.9813],[122.4802,-16.8946],[122.508,-16.9544],[122.6122,-16.9653],[122.5338,-16.8369],[122.5794,-16.7621],[122.6374,-16.8007],[122.7816,-16.7474],[122.8456,-16.792],[122.7418,-16.6834],[122.8101,-16.5453],[122.8842,-16.5303],[122.9253,-16.3895],[123.0389,-16.3592],[123.0148,-16.4058],[123.0767,-16.4403],[122.983,-16.4651],[123.008,-16.5284],[122.9544,-16.5801],[122.9957,-16.6408],[123.0387,-16.6214],[123.0506,-16.6908],[123.1388,-16.6885],[123.1025,-16.7837],[123.1614,-16.8179],[123.1491,-16.9247],[123.2634,-17.0118],[123.5803,-17.5842],[123.5645,-17.4058],[123.6462,-17.184],[123.5835,-17.0333],[123.648,-16.9997],[123.9125,-17.2119],[123.7964,-17.004],[123.9593,-16.8524],[123.9514,-16.8181],[123.7961,-16.9118],[123.7115,-16.7527],[123.5028,-16.6588],[123.6151,-16.5543],[123.5261,-16.5444],[123.5116,-16.5978],[123.4285,-16.4989],[123.4966,-16.5145],[123.4735,-16.47],[123.643,-16.53],[123.583,-16.4986],[123.6629,-16.4911],[123.5091,-16.3802],[123.6655,-16.4366],[123.6972,-16.4149],[123.6292,-16.3568],[123.7169,-16.3724],[123.5502,-16.2832],[123.6166,-16.2618],[123.5567,-16.1777],[123.6934,-16.1511],[123.7014,-16.1903],[123.7031,-16.1287],[123.7706,-16.1706],[123.8146,-16.2197],[123.7407,-16.2633],[123.8659,-16.3279],[123.8711,-16.4471],[123.917,-16.3522],[123.8838,-16.304],[123.9876,-16.3704],[123.9336,-16.2977],[124.0001,-16.2918],[123.9099,-16.2103],[124.1244,-16.2804],[124.2227,-16.4184],[124.3901,-16.4452],[124.4103,-16.5433],[124.4682,-16.4986],[124.3365,-16.4188],[124.3875,-16.3456],[124.4492,-16.4109],[124.7454,-16.39],[124.8405,-16.4343],[124.9477,-16.3933],[124.8145,-16.4164],[124.6935,-16.3447],[124.3945,-16.3385],[124.379,-16.2166],[124.4347,-16.1788],[124.4443,-16.0654],[124.5082,-16.206],[124.5607,-16.1195],[124.6469,-16.0981],[124.5881,-16.1095],[124.5889,-15.9735],[124.6426,-15.9884],[124.6078,-15.8913],[124.7416,-15.8223],[124.7043,-15.7502],[124.6754,-15.7847],[124.7048,-15.7411],[124.6328,-15.779],[124.4986,-15.9981],[124.4766,-15.8203],[124.4093,-15.8638],[124.3859,-15.7176],[124.4373,-15.7115],[124.3688,-15.6719],[124.4437,-15.6697],[124.4505,-15.6028],[124.5006,-15.6367],[124.4046,-15.6151],[124.4175,-15.5492],[124.5104,-15.5251],[124.4464,-15.5063],[124.5183,-15.4687],[124.6288,-15.5257],[124.6457,-15.4247],[124.6742,-15.4981],[124.6762,-15.4007],[124.7448,-15.3618],[124.662,-15.3549],[124.705,-15.2534],[124.7706,-15.3021],[124.7533,-15.3544],[124.7832,-15.2945],[124.8468,-15.2991],[124.8477,-15.3532],[124.9788,-15.4096],[124.9529,-15.4892],[125.0183,-15.4715],[125.0171,-15.5447],[125.0887,-15.4632],[125.4212,-15.696],[125.07,-15.4402],[125.0909,-15.355],[125.1641,-15.3306],[125.0886,-15.3377],[125.1189,-15.2556],[125.0734,-15.2539],[125.0813,-15.3144],[125.0307,-15.2748],[124.8979,-15.3399],[124.9274,-15.2292],[125.0056,-15.2419],[125.056,-15.1644],[124.9701,-15.1643],[124.8758,-15.2619],[124.8964,-15.1734],[124.8339,-15.158],[125.0299,-15.1133],[125.012,-14.9832],[125.0743,-14.9758],[125.0724,-15.0649],[125.1257,-15.0435],[125.1632,-15.1514],[125.2811,-15.0975],[125.3349,-15.1629],[125.4813,-15.1548],[125.3576,-15.1084],[125.4816,-14.9986],[125.3859,-15.0326],[125.2576,-14.9438],[125.2137,-14.9698],[125.334,-14.8813],[125.2355,-14.8676],[125.2441,-14.8317],[125.2101,-14.8649],[125.1414,-14.7477],[125.3084,-14.6499],[125.2042,-14.6515],[125.3641,-14.5057],[125.3546,-14.5841],[125.4103,-14.5456],[125.4299,-14.6415],[125.5203,-14.5002],[125.5606,-14.5148],[125.5348,-14.5639],[125.5993,-14.5626],[125.5962,-14.2373],[125.7301,-14.281],[125.6515,-14.386],[125.6887,-14.4994],[125.6469,-14.6482],[125.7089,-14.4866],[125.8061,-14.4443],[125.8591,-14.475],[125.8306,-14.5851],[125.9367,-14.643],[125.9206,-14.5372],[126.0509,-14.5296],[125.9767,-14.3933],[126.0884,-14.3512],[126.0534,-14.2542],[126.1332,-14.2314],[126.1697,-14.1462],[126.1044,-14.0757],[125.9931,-14.0682],[125.9838,-13.9898],[126.0101,-14.0654],[126.0382,-13.9815],[126.1026,-14.0408],[126.1072,-13.9767],[126.0112,-13.9257],[126.1584,-13.915],[126.1098,-14.0283],[126.2158,-13.9676],[126.1443,-14.015],[126.2175,-14.0429],[126.1508,-14.0802],[126.2142,-14.0765],[126.186,-14.1669],[126.2433,-14.1757],[126.216,-14.2366],[126.2536,-14.2392],[126.3608,-14.1899],[126.2976,-14.1388],[126.3343,-14.05],[126.537,-13.9344],[126.5659,-13.9548],[126.4495,-14.0837],[126.5254,-14.0817],[126.4992,-14.1303],[126.5698,-14.1398],[126.6017,-14.2358],[126.6448,-14.0771],[126.6938,-14.1347],[126.7627,-14.0501],[126.7061,-13.9733],[126.9054,-13.9852],[126.8056,-13.9305],[126.7666,-13.7765],[126.8423,-13.817],[126.8513,-13.7582],[126.9633,-13.7417],[127.0061,-13.8238],[127.0814,-13.84],[127.0606,-13.9079],[127.1029,-13.8843],[127.1429,-13.9823],[127.1907,-13.904],[127.2078,-13.9736],[127.2467,-13.9004],[127.3181,-13.9612],[127.3474,-13.9066],[127.4301,-13.9429],[127.4525,-14.0588],[127.6698,-14.1905],[127.9526,-14.586],[127.993,-14.5562],[128.2217,-14.7212],[128.1924,-14.8387],[128.1185,-14.8613],[128.0928,-15.281],[128.0404,-15.2928],[128.0894,-15.3903],[127.9988,-15.5181],[128.1143,-15.428],[128.1283,-15.1837],[128.258,-15.3063],[128.3416,-15.5013],[128.194,-15.0935],[128.2655,-14.9826],[128.3312,-15.0354],[128.3139,-14.9257],[128.3619,-15.0666],[128.3581,-14.9913],[128.4104,-15.0321],[128.3491,-14.968],[128.3582,-14.885],[128.4486,-15.0021],[128.4217,-14.8817],[128.519,-15.0148],[128.3934,-14.8044],[128.5505,-14.7679],[129.0012,-14.8795],[129.0013,-31.6871],[128.3143,-31.9794],[127.326,-32.2565],[126.6728,-32.3084],[126.2031,-32.2323],[125.951,-32.2905],[125.5321,-32.5492],[125.0262,-32.7289],[124.814,-32.8729],[124.2387,-33.0176],[124.1012,-33.1762],[123.976,-33.5586],[123.7744,-33.6982],[123.7642,-33.7952],[123.5343,-33.9401],[123.3714,-33.8959],[123.1631,-34.0166],[123.1339,-33.9044],[123.0227,-33.8566],[122.9759,-33.9023],[122.6187,-33.8928],[122.5715,-33.9614],[122.3642,-33.9135],[122.2773,-34.0007],[122.1136,-34.0172],[122.001,-33.8293],[121.7899,-33.909],[121.3619,-33.8154],[121.1771,-33.8776],[120.5935,-33.8862],[120.4366,-33.9719],[120.0422,-33.9234],[119.8164,-33.9835],[119.5975,-34.1346],[119.4571,-34.2891],[119.5763,-34.3872],[119.4157,-34.3733],[119.4186,-34.4589],[119.2899,-34.452],[119.2545,-34.5346],[119.0691,-34.4588],[118.9118,-34.4629],[118.9142,-34.5032],[118.7554,-34.5456],[118.7817,-34.609],[118.7224,-34.6569],[118.4401,-34.7608],[118.4034,-34.9167],[118.1753,-34.9401],[118.1875,-35.0246],[117.9619,-35.0131],[117.9489,-34.9436],[117.9195,-35.0358],[117.8482,-35.0449],[118.0212,-35.1079],[117.8988,-35.1234],[117.6856,-35.0433],[117.6112,-35.1333],[117.3325,-35.0228],[117.4658,-35.0205],[117.4552,-34.967],[117.3692,-34.9695],[117.3261,-35.0439],[117.1952,-35.0171],[117.1505,-35.0615],[116.4817,-35.0162],[116.2613,-34.8799],[116.0021,-34.8422],[115.9472,-34.7208],[115.5779,-34.4221],[115.3454,-34.3162],[115.1689,-34.3217],[115.1767,-34.2657],[115.134,-34.3761],[115.0238,-34.253],[114.9759,-33.8642],[115.0037,-33.5309],[115.2067,-33.651],[115.3672,-33.6394],[115.6663,-33.3221],[115.6878,-33.1086],[115.6082,-32.6667],[115.7105,-32.5206],[115.641,-32.6185],[115.7124,-32.7877],[115.6664,-32.6157],[115.747,-32.6463],[115.7775,-32.5963],[115.7185,-32.5644],[115.7433,-32.3336],[115.6847,-32.266],[115.7367,-32.2697],[115.7746,-32.1938],[115.7322,-32.0557],[115.8464,-32.0017],[115.8606,-32.0458],[115.8451,-31.9652],[115.974,-31.8937],[115.7244,-32.0541],[115.7517,-31.8483],[115.6858,-31.6537],[115.1898,-30.825],[115.0579,-30.5102],[115.0426,-30.2738],[114.9548,-30.0489],[114.9976,-29.4935],[114.8721,-29.1167],[114.5762,-28.7846],[114.6127,-28.6652],[114.5337,-28.4945],[114.1747,-28.111],[114.1054,-27.8504],[114.1817,-27.6803],[113.9652,-27.2307],[113.5844,-26.6714],[113.2967,-26.4002],[113.2775,-26.294],[113.1563,-26.1517],[113.27,-26.2418],[113.2993,-26.016],[113.3267,-26.3373],[113.3926,-26.4023],[113.3942,-26.393]]],[[[113.2369,-26.1043],[113.2163,-26.1625],[112.9674,-25.7833],[112.9211,-25.5882],[112.9707,-25.4804],[113.0226,-25.499],[113.1097,-25.868],[113.156,-25.8878],[113.1367,-25.9774],[113.1681,-25.9433],[113.2197,-26.0584],[113.2369,-26.1043]]]]}},{"type":"Feature","properties":{"STATE_CODE":"NT","STATE_NAME":"Northern Territory","STATE_ABBR":"NT"},"geometry":{"type":"MultiPolygon","coordinates":[[[[130.5179,-12.731],[130.6077,-12.7199],[130.625,-12.7694],[130.6215,-12.7052],[130.6891,-12.7515],[130.7388,-12.7105],[130.5457,-12.6343],[130.5865,-12.6605],[130.609,-12.6044],[130.6412,-12.6442],[130.5668,-12.5815],[130.6193,-12.3814],[130.7651,-12.4374],[130.732,-12.5969],[130.7786,-12.5591],[130.7919,-12.6219],[130.8102,-12.5399],[130.8698,-12.6587],[130.9082,-12.6564],[130.8823,-12.6062],[130.9668,-12.6298],[130.8592,-12.5066],[130.9538,-12.5551],[130.9467,-12.471],[130.8211,-12.4619],[130.8164,-12.4071],[130.896,-12.3301],[131.055,-12.3478],[130.9946,-12.1861],[131.0306,-12.1464],[131.1691,-12.1732],[131.225,-12.285],[131.2971,-12.0426],[131.3228,-12.1934],[131.4268,-12.2754],[131.6828,-12.2847],[131.8793,-12.2146],[132.0697,-12.3035],[132.2382,-12.1698],[132.3894,-12.2364],[132.442,-12.1465],[132.6293,-12.0854],[132.6553,-11.8898],[132.5807,-11.786],[132.6547,-11.6856],[132.5947,-11.73],[132.4998,-11.6821],[132.5074,-11.6357],[132.6166,-11.6548],[132.4942,-11.4825],[132.2388,-11.4552],[132.1138,-11.5399],[132.0339,-11.4821],[132.0594,-11.4321],[131.9424,-11.3999],[131.989,-11.3733],[131.9169,-11.3575],[131.9435,-11.3199],[131.7627,-11.3158],[131.8552,-11.2767],[131.8148,-11.2117],[131.8794,-11.2349],[131.8825,-11.1815],[131.9612,-11.2531],[131.993,-11.1242],[132.1135,-11.2111],[132.1,-11.3291],[132.1368,-11.2962],[132.1704,-11.4204],[132.2365,-11.3399],[132.1726,-11.3234],[132.2025,-11.2268],[132.1356,-11.1224],[132.2835,-11.2767],[132.2651,-11.1754],[132.3333,-11.1157],[132.3737,-11.2955],[132.451,-11.2181],[132.669,-11.5156],[132.7329,-11.5191],[132.8422,-11.3951],[132.8964,-11.4259],[132.865,-11.3401],[132.918,-11.3317],[133.1907,-11.7286],[133.3434,-11.6937],[133.3209,-11.7698],[133.4028,-11.7321],[133.4591,-11.802],[133.5338,-11.7603],[133.5301,-11.813],[133.6111,-11.8428],[133.7939,-11.7247],[133.9156,-11.7424],[133.9403,-11.7704],[133.8296,-11.865],[133.9077,-11.9276],[134.0308,-11.855],[134.0748,-11.9418],[134.1272,-11.8973],[134.1942,-12.0287],[134.1684,-12.1148],[134.2458,-11.9847],[134.4909,-12.0772],[134.7476,-11.9493],[134.8568,-12.131],[134.9716,-12.1584],[135.056,-12.2636],[135.1447,-12.2367],[135.2131,-12.2953],[135.1616,-12.225],[135.3425,-12.2464],[135.2233,-12.1887],[135.3662,-12.0847],[135.4544,-12.1141],[135.519,-12.0598],[135.57,-12.1007],[135.9099,-11.9524],[135.6592,-12.1499],[135.7104,-12.3126],[135.8036,-12.1989],[135.9591,-12.152],[136.0458,-12.0631],[135.928,-12.2221],[135.9501,-12.279],[136.0612,-12.2409],[135.9757,-12.3692],[136.0155,-12.3971],[135.9889,-12.4624],[136.2317,-12.4657],[136.3591,-12.2304],[136.1674,-12.163],[136.563,-11.8766],[136.5804,-11.9155],[136.4489,-11.9875],[136.489,-12.0401],[136.5311,-11.9914],[136.6475,-12.2697],[136.7423,-12.2718],[136.7522,-12.2141],[136.6814,-12.1863],[136.7824,-12.1591],[136.9051,-12.246],[136.9211,-12.3442],[136.9789,-12.3454],[136.7727,-12.5555],[136.7944,-12.4498],[136.7209,-12.4582],[136.7484,-12.5339],[136.6693,-12.5906],[136.7619,-12.5774],[136.6906,-12.6323],[136.6939,-12.7111],[136.6174,-12.6898],[136.6217,-12.8395],[136.5498,-12.7404],[136.5428,-12.8068],[136.4637,-12.772],[136.668,-13.0043],[136.4552,-12.9782],[136.5667,-13.0588],[136.4678,-13.2475],[136.4397,-13.2174],[136.3314,-13.3247],[136.3281,-13.25],[136.3881,-13.2271],[136.3334,-13.0341],[136.3156,-13.1596],[136.218,-13.1383],[136.2452,-13.2125],[136.1619,-13.2421],[136.1816,-13.2808],[136.1452,-13.1205],[136.0472,-13.3098],[136.0121,-13.2149],[135.9636,-13.2948],[135.9187,-13.2684],[135.88,-13.3631],[135.973,-13.4023],[135.9312,-13.4668],[135.8597,-13.4402],[135.8353,-13.5908],[135.9216,-13.676],[135.8794,-13.712],[135.9562,-13.7434],[136.0259,-13.6521],[136.0831,-13.6555],[135.9097,-13.9904],[135.9036,-14.1905],[135.7025,-14.2714],[135.6703,-14.4244],[135.6196,-14.4231],[135.5366,-14.5611],[135.5411,-14.6527],[135.3821,-14.7257],[135.4788,-14.9761],[136.2397,-15.4161],[136.3175,-15.626],[136.4121,-15.6262],[136.5555,-15.7504],[136.6441,-15.6724],[136.7241,-15.6963],[136.6428,-15.7691],[136.7064,-15.9312],[136.7715,-15.8894],[136.9532,-15.9383],[136.9127,-15.8997],[136.978,-15.851],[137.3726,-16.1333],[137.7297,-16.2323],[138.0012,-16.5445],[137.9991,-25.9969],[129.0006,-25.9986],[129.0012,-14.8795],[129.1013,-14.9151],[129.1084,-14.9892],[129.1307,-14.949],[129.1889,-14.9872],[129.1582,-15.1976],[129.1996,-15.1467],[129.2312,-15.1759],[129.2365,-15.0678],[129.3016,-15.0365],[129.2335,-15.0083],[129.2284,-14.8394],[129.4825,-14.9411],[129.6039,-15.108],[129.5636,-15.1799],[129.685,-15.1427],[129.4997,-14.7901],[129.5921,-14.891],[129.5775,-14.7983],[129.8025,-14.858],[129.9028,-14.7732],[129.769,-14.828],[129.81,-14.7603],[129.6724,-14.7635],[129.5836,-14.6162],[129.6924,-14.6128],[129.7715,-14.5387],[129.6693,-14.5805],[129.5263,-14.5523],[129.4882,-14.5033],[129.5231,-14.4656],[129.4827,-14.5009],[129.454,-14.4464],[129.4532,-14.5051],[129.3568,-14.4236],[129.367,-14.3381],[129.512,-14.127],[129.479,-14.0479],[129.5356,-14.0584],[129.5567,-14.1422],[129.5981,-14.0111],[129.6409,-14.0472],[129.746,-13.9751],[129.7155,-13.8789],[129.7948,-13.7895],[129.8173,-13.5018],[129.8853,-13.5032],[129.8974,-13.4404],[129.9099,-13.5143],[130.0084,-13.5333],[130.2779,-13.3349],[130.1162,-13.1641],[130.1411,-12.9335],[130.2471,-12.9484],[130.3382,-12.8901],[130.352,-12.6703],[130.4041,-12.7015],[130.4609,-12.6392],[130.5061,-12.715],[130.5179,-12.731]]],[[[136.9641,-14.1653],[136.9646,-14.2826],[136.9044,-14.3105],[136.7555,-14.2581],[136.6499,-14.2962],[136.4373,-14.1963],[136.3247,-14.2461],[136.4426,-14.1235],[136.4092,-13.831],[136.4956,-13.8408],[136.5319,-13.785],[136.5662,-13.8299],[136.638,-13.7836],[136.5778,-13.6874],[136.6321,-13.7206],[136.7286,-13.6522],[136.6811,-13.7394],[136.7354,-13.771],[136.7254,-13.8423],[136.8373,-13.8429],[136.8373,-13.8024],[136.797,-13.8342],[136.8405,-13.7452],[136.9244,-13.8065],[136.8578,-13.9128],[136.7789,-13.934],[136.8076,-14.0359],[136.7206,-14.0699],[136.7071,-14.169],[136.7854,-14.1931],[136.8003,-14.147],[136.8658,-14.2108],[136.9113,-14.1376],[136.9452,-14.1571],[136.9641,-14.1653]]],[[[130.4024,-11.3634],[130.3635,-11.2512],[130.4017,-11.1661],[130.4963,-11.2786],[130.5948,-11.2892],[130.5683,-11.3976],[130.6566,-11.336],[130.7059,-11.5136],[130.7228,-11.4703],[130.824,-11.5384],[130.7046,-11.3853],[130.8973,-11.3089],[131.0316,-11.3673],[131.1477,-11.2499],[131.2093,-11.3441],[131.204,-11.236],[131.2771,-11.1895],[131.3051,-11.2746],[131.4358,-11.2659],[131.4565,-11.4196],[131.5002,-11.3836],[131.5431,-11.4522],[131.465,-11.4979],[131.4698,-11.6081],[131.3691,-11.5809],[131.2804,-11.7398],[130.9493,-11.9401],[130.4926,-11.6549],[130.4095,-11.3673],[130.4024,-11.3634]]],[[[130.2127,-11.7122],[130.2372,-11.7466],[130.223,-11.6704],[130.3059,-11.733],[130.1913,-11.6427],[130.1748,-11.5578],[130.225,-11.5072],[130.2615,-11.571],[130.2833,-11.5399],[130.148,-11.4821],[130.3374,-11.3186],[130.4683,-11.6662],[130.6411,-11.7568],[130.6037,-11.8271],[130.3123,-11.7709],[130.1308,-11.8252],[130.0238,-11.7973],[130.0808,-11.7688],[130.0765,-11.6691],[130.1573,-11.7051],[130.2023,-11.6494],[130.2132,-11.715],[130.2127,-11.7122]]]]}},{"type":"Feature","properties":{"STATE_CODE":"SA","STATE_NAME":"South Australia","STATE_ABBR":"SA"},"geometry":{"type":"MultiPolygon","coordinates":[[[[138.5002,-34.8436],[138.5663,-34.8251],[138.5326,-34.7374],[138.2656,-34.4768],[138.223,-34.3113],[138.0774,-34.1336],[137.8876,-34.5074],[137.865,-34.7779],[137.7247,-35.0537],[137.7587,-35.1147],[137.6375,-35.1682],[137.4228,-35.0981],[137.174,-35.2374],[137.0014,-35.2232],[136.883,-35.3003],[136.8219,-35.2453],[136.9411,-35.1291],[136.9303,-35.029],[137.0136,-34.893],[137.2765,-34.8939],[137.3749,-34.9537],[137.4488,-34.9103],[137.5094,-34.618],[137.4832,-34.4393],[137.4151,-34.4596],[137.5003,-34.312],[137.4499,-34.1355],[137.5223,-34.1293],[137.5675,-34.0435],[137.5271,-34.0044],[137.6306,-33.9218],[137.6004,-33.8768],[137.9775,-33.5588],[137.8111,-33.2663],[138.0008,-33.1316],[138.0242,-33.1819],[138.0544,-33.1151],[137.9521,-33.006],[137.9009,-32.7776],[137.9445,-32.7577],[137.8376,-32.6958],[137.8676,-32.6639],[137.7504,-32.4154],[137.7497,-32.7083],[137.8095,-32.7486],[137.7983,-32.8935],[137.7495,-32.9215],[137.7865,-32.9999],[137.6414,-32.9553],[137.452,-33.1307],[137.3605,-33.4392],[137.2133,-33.6611],[136.5927,-33.8996],[136.3631,-34.0693],[136.2336,-34.2961],[136.1122,-34.3594],[136.0922,-34.5427],[136.0563,-34.479],[135.9323,-34.5285],[135.9374,-34.649],[135.8911,-34.6157],[135.854,-34.6654],[135.8914,-34.7514],[135.7857,-34.8093],[135.9806,-34.7846],[136.0065,-34.7359],[135.96,-34.8486],[136.0045,-34.9803],[135.9545,-35.0064],[135.7921,-34.861],[135.6188,-34.9445],[135.4743,-34.7441],[135.325,-34.6864],[135.3417,-34.6291],[135.2524,-34.5519],[135.1092,-34.5882],[135.2063,-34.4293],[135.2214,-34.4986],[135.3539,-34.5221],[135.2976,-34.5523],[135.4022,-34.6334],[135.3658,-34.6421],[135.5168,-34.613],[135.4317,-34.6034],[135.4051,-34.5072],[135.3892,-34.5951],[135.3462,-34.2676],[135.2412,-34.1501],[135.2795,-34.1197],[135.2522,-33.9813],[135.0403,-33.755],[134.8302,-33.6263],[134.8451,-33.4365],[134.802,-33.3288],[134.6583,-33.2336],[134.7191,-33.23],[134.7021,-33.1747],[134.5584,-33.1613],[134.6408,-33.1827],[134.6308,-33.2452],[134.4509,-33.1447],[134.3689,-33.1759],[134.2755,-33.0248],[134.2788,-33.1074],[134.3585,-33.1483],[134.3284,-33.1995],[134.2303,-33.0433],[134.1679,-33.0557],[134.1385,-33.0181],[134.2019,-32.9638],[134.0605,-32.9079],[134.1385,-32.8397],[134.0603,-32.7225],[134.2049,-32.7252],[134.1528,-32.724],[134.2219,-32.7898],[134.2904,-32.6929],[134.2663,-32.5738],[134.0571,-32.4407],[134.0862,-32.4708],[133.849,-32.5417],[133.8668,-32.3992],[133.9193,-32.4283],[133.9511,-32.3885],[133.8214,-32.234],[133.7697,-32.2638],[133.7567,-32.2058],[133.6791,-32.2026],[133.6669,-32.1038],[133.5923,-32.0873],[133.5535,-32.1696],[133.4728,-32.1001],[133.3951,-32.1416],[133.4877,-32.2061],[133.1647,-32.1701],[133.1258,-32.2088],[133.0883,-32.127],[132.7466,-31.9493],[132.5313,-31.9349],[132.4464,-31.9707],[132.4732,-32.0301],[132.2006,-32.0273],[131.7586,-31.7203],[131.1486,-31.4637],[130.8061,-31.6056],[130.1522,-31.5765],[129.0013,-31.6871],[129.0019,-25.9986],[140.9994,-25.9964],[140.9657,-38.056],[140.6624,-38.0615],[140.3964,-37.919],[140.1208,-37.5309],[139.9931,-37.4859],[139.8407,-37.3222],[139.74,-37.1821],[139.7915,-37.1129],[139.67,-36.9574],[139.8429,-36.8396],[139.8511,-36.6475],[139.6552,-36.2219],[139.377,-35.8922],[139.0553,-35.6496],[138.7629,-35.5207],[138.6315,-35.5438],[138.5224,-35.643],[138.1914,-35.6651],[138.0962,-35.6252],[138.1655,-35.5194],[138.441,-35.35],[138.5176,-35.0321],[138.4963,-34.7646],[138.5115,-34.8181],[138.5002,-34.8436]]],[[[138.1349,-35.8414],[138.0408,-35.9043],[137.7411,-35.8531],[137.612,-35.9131],[137.6026,-36.0093],[137.4607,-36.075],[137.371,-35.9984],[137.2095,-35.974],[137.1309,-36.034],[136.854,-36.0166],[136.7052,-36.0641],[136.5329,-35.8766],[136.5874,-35.7489],[137.3135,-35.5792],[137.6217,-35.5612],[137.5698,-35.6324],[137.6437,-35.6541],[137.5779,-35.7257],[137.7803,-35.7239],[137.7544,-35.843],[137.8148,-35.822],[137.7774,-35.7844],[137.8522,-35.795],[137.9407,-35.7162],[138.1233,-35.8342],[138.1349,-35.8414]]]]}},{"type":"Feature","properties":{"STATE_CODE":"QLD","STATE_NAME":"Queensland","STATE_ABBR":"QLD"},"geometry":{"type":"MultiPolygon","coordinates":[[[[141.6635,-15.004],[141.5256,-14.4871],[141.599,-14.1017],[141.4672,-13.8642],[141.5233,-13.5721],[141.6954,-13.2701],[141.5832,-12.9967],[141.7399,-12.8535],[141.8937,-12.5935],[141.8199,-12.6015],[141.7094,-12.519],[141.5919,-12.559],[141.8504,-11.9845],[141.909,-11.9555],[141.9152,-12.1651],[141.9323,-12.0709],[142.0122,-12.0391],[141.9422,-11.9455],[142.12,-11.3685],[142.1328,-10.9484],[142.315,-10.9152],[142.4383,-10.7082],[142.5309,-10.6875],[142.6093,-10.749],[142.4821,-10.9784],[142.5892,-10.8682],[142.7861,-11.0742],[142.7935,-11.2785],[142.8687,-11.3816],[142.8268,-11.4765],[142.8564,-11.8455],[142.9746,-11.9329],[143.0983,-11.8922],[143.1675,-11.9733],[143.2441,-11.9687],[143.0787,-12.1592],[143.0786,-12.3375],[143.2474,-12.3791],[143.3031,-12.5516],[143.4384,-12.6118],[143.3513,-12.899],[143.5441,-12.8428],[143.4986,-12.9496],[143.5159,-13.2593],[143.5982,-13.4223],[143.5317,-13.7546],[143.6811,-14.0146],[143.7811,-14.3992],[143.8844,-14.4821],[144.0293,-14.4813],[144.1683,-14.3814],[144.1961,-14.261],[144.343,-14.3079],[144.5162,-14.1666],[144.5962,-14.2606],[144.587,-14.3607],[144.6511,-14.3584],[144.6188,-14.4754],[144.693,-14.5671],[144.7743,-14.5455],[144.7827,-14.5936],[144.9102,-14.614],[144.9561,-14.7448],[145.2296,-14.8314],[145.2822,-14.9552],[145.3518,-14.951],[145.2338,-15.139],[145.2633,-15.2511],[145.3395,-15.2264],[145.3562,-15.2765],[145.2856,-15.3162],[145.2285,-15.462],[145.3228,-15.5703],[145.3573,-15.9105],[145.4769,-16.0761],[145.4413,-16.1747],[145.4889,-16.2767],[145.4182,-16.3383],[145.4101,-16.4593],[145.7249,-16.8039],[145.7792,-16.9405],[145.8489,-16.8712],[145.9577,-16.8966],[145.8894,-17.0576],[146.0732,-17.3947],[146.0278,-17.5503],[146.0682,-17.5104],[146.149,-17.6486],[146.0909,-17.8],[146.1014,-17.9769],[146.008,-18.1205],[146.0162,-18.245],[146.1894,-18.4738],[146.3379,-18.5266],[146.2898,-18.8919],[146.4542,-19.0737],[146.6785,-19.1906],[146.7679,-19.1847],[146.8826,-19.3036],[146.958,-19.3088],[147.0163,-19.1823],[147.1261,-19.4225],[147.441,-19.4212],[147.4211,-19.3223],[147.6714,-19.8284],[147.7607,-19.8412],[147.7523,-19.7066],[147.8236,-19.7097],[147.9178,-19.9083],[148.0801,-19.8819],[148.1119,-19.9416],[148.2601,-19.9768],[148.2306,-20.0453],[148.3525,-20.1627],[148.466,-20.1384],[148.452,-20.0594],[148.5629,-20.0667],[148.5826,-20.1976],[148.6779,-20.1787],[148.6732,-20.2823],[148.7693,-20.236],[148.9301,-20.5338],[148.8569,-20.5279],[148.824,-20.4261],[148.7561,-20.4189],[148.7636,-20.4797],[148.6802,-20.4413],[148.7151,-20.4948],[148.662,-20.5858],[148.8408,-20.7911],[148.7873,-20.8166],[148.8431,-20.876],[149.0461,-20.903],[149.0142,-20.9919],[149.0889,-20.9759],[149.227,-21.0628],[149.2228,-21.1477],[149.1528,-21.143],[149.2152,-21.1454],[149.1792,-21.2847],[149.2987,-21.2733],[149.3173,-21.3927],[149.2764,-21.4007],[149.3382,-21.4269],[149.2905,-21.5068],[149.3958,-21.4931],[149.3736,-21.5351],[149.4434,-21.5934],[149.4846,-21.5317],[149.4386,-21.64],[149.4797,-21.7429],[149.4216,-21.7717],[149.4654,-21.9257],[149.5973,-22.2815],[149.6583,-22.3549],[149.7667,-22.3713],[149.7521,-22.4364],[149.8111,-22.3821],[150.0467,-22.6611],[149.9129,-22.3427],[149.9719,-22.3298],[149.9149,-22.3212],[149.9559,-22.1853],[150.043,-22.1261],[150.1774,-22.3605],[150.4976,-22.5602],[150.4918,-22.5214],[150.5486,-22.6171],[150.5976,-22.5594],[150.5331,-22.45],[150.59,-22.4641],[150.53,-22.4024],[150.5619,-22.3168],[150.6458,-22.3455],[150.6273,-22.4417],[150.6663,-22.4541],[150.6671,-22.3465],[150.6932,-22.4306],[150.7533,-22.4463],[150.7239,-22.5186],[150.6443,-22.4743],[150.6796,-22.5735],[150.7248,-22.5632],[150.7073,-22.6362],[150.7589,-22.6267],[150.7839,-22.5292],[150.7777,-22.639],[150.8352,-22.6842],[150.7496,-23.1288],[150.8284,-23.2362],[150.7678,-23.303],[150.8714,-23.4806],[150.7899,-23.5101],[150.8781,-23.5523],[150.8342,-23.5538],[150.8572,-23.6208],[150.9346,-23.544],[150.9253,-23.6228],[150.9754,-23.5554],[151.0266,-23.572],[151.1729,-23.8159],[151.318,-23.8546],[151.3046,-23.9001],[151.4266,-23.9872],[151.4379,-24.0769],[151.4435,-24.026],[151.4938,-24.067],[151.4405,-23.992],[151.5439,-24.0293],[151.5011,-24.045],[151.5454,-24.1133],[151.5737,-24.0357],[151.6825,-24.1041],[151.6106,-23.9793],[151.7303,-24.0225],[151.7158,-24.0873],[151.7646,-24.0152],[151.7715,-24.1295],[151.8758,-24.1715],[151.8491,-24.2185],[151.8863,-24.1494],[152.044,-24.5251],[152.4682,-24.8161],[152.5337,-25.0896],[152.633,-25.1518],[152.547,-25.205],[152.615,-25.1833],[152.7224,-25.2696],[152.8139,-25.2435],[152.9144,-25.2934],[152.9244,-25.4308],[152.8237,-25.494],[152.9563,-25.4336],[152.8619,-25.5534],[152.8784,-25.6836],[152.976,-25.7712],[152.9367,-25.815],[153.0205,-25.8296],[152.9991,-25.969],[153.0564,-25.9313],[153.0464,-25.808],[153.1199,-25.9336],[153.1923,-25.9329],[153.0614,-26.3132],[153.1199,-26.3792],[153.0987,-26.6426],[153.1514,-26.8022],[153.0246,-26.9881],[153.1442,-27.0754],[153.022,-27.1241],[153.0375,-27.1966],[153.1166,-27.1983],[153.1078,-27.2617],[153.0539,-27.2303],[153.0696,-27.314],[153.1605,-27.3774],[153.0533,-27.4604],[153.1913,-27.3673],[153.1886,-27.4758],[153.241,-27.465],[153.3179,-27.5815],[153.2988,-27.7107],[153.3831,-27.7088],[153.3676,-27.6487],[153.4159,-27.6416],[153.3855,-27.7085],[153.4393,-27.7358],[153.3765,-27.8455],[153.4504,-28.0836],[153.5521,-28.1643],[153.4769,-28.157],[153.3568,-28.2496],[153.178,-28.2475],[153.1088,-28.3575],[152.88,-28.3096],[152.7511,-28.3639],[152.6145,-28.2696],[152.5792,-28.339],[152.5342,-28.2626],[152.4636,-28.2594],[152.3862,-28.3686],[151.9556,-28.5189],[152.076,-28.7082],[152.0097,-28.9077],[151.8494,-28.9078],[151.7778,-28.9599],[151.7065,-28.8718],[151.5456,-28.953],[151.3938,-29.1779],[151.2796,-29.1008],[151.2748,-28.9389],[151.0453,-28.8445],[151.0106,-28.7408],[150.7523,-28.6335],[150.4456,-28.6651],[150.2896,-28.5372],[149.7031,-28.6337],[149.503,-28.5744],[149.3874,-28.6958],[149.0808,-28.8418],[148.9583,-28.9991],[140.9993,-28.9991],[140.9994,-25.9964],[137.9991,-25.9969],[138.0012,-16.5445],[138.3236,-16.7505],[138.629,-16.7679],[139.0387,-16.9124],[139.1579,-17.0292],[139.155,-17.1639],[139.2377,-17.3198],[139.4769,-17.4009],[139.6467,-17.5381],[139.8218,-17.5706],[140.0044,-17.7146],[140.3846,-17.6779],[140.5936,-17.5978],[140.8874,-17.3823],[140.958,-16.9981],[141.2965,-16.4962],[141.2861,-16.4082],[141.4328,-16.0748],[141.3734,-15.9169],[141.4347,-15.6576],[141.6671,-15.0235],[141.6635,-15.004]]],[[[152.9502,-25.5739],[153.0514,-25.3453],[153.0515,-25.2447],[152.9923,-25.2207],[153.2223,-24.9957],[153.2262,-24.912],[153.1189,-24.8151],[153.2646,-24.6971],[153.2703,-24.8935],[153.3604,-25.0064],[153.1079,-25.56],[153.0777,-25.7923],[153.0151,-25.7691],[152.9425,-25.5859],[152.9502,-25.5739]]],[[[151.3153,-23.7592],[151.2145,-23.7944],[150.9795,-23.4888],[151.057,-23.4477],[151.1834,-23.5413],[151.2352,-23.4837],[151.2256,-23.6095],[151.2962,-23.7386],[151.3153,-23.7592]]],[[[139.7121,-16.5305],[139.596,-16.5542],[139.5466,-16.4605],[139.475,-16.5262],[139.5068,-16.5767],[139.4531,-16.5695],[139.4513,-16.6663],[139.3759,-16.642],[139.3131,-16.7302],[139.23,-16.7312],[139.151,-16.6338],[139.3041,-16.4628],[139.548,-16.3907],[139.7009,-16.5144],[139.7121,-16.5305]]]]}},{"type":"Feature","properties":{"STATE_CODE":"NSW","STATE_NAME":"New South Wales","STATE_ABBR":"NSW"},"geometry":{"type":"MultiPolygon","coordinates":[[[[151.1455,-33.8241],[151.1802,-33.8362],[151.0513,-33.8237],[151.1893,-33.8758],[151.2811,-33.8328],[151.266,-33.968],[151.1183,-33.9905],[151.1376,-34.0371],[151.2303,-34.0264],[151.0611,-34.0644],[151.1718,-34.0865],[150.928,-34.3166],[150.8841,-34.4577],[150.9219,-34.4939],[150.8746,-34.5383],[150.8866,-34.4916],[150.8324,-34.4863],[150.7968,-34.5462],[150.862,-34.5375],[150.9045,-34.597],[150.7495,-34.8552],[150.7847,-34.9866],[150.8497,-35.0129],[150.8338,-35.0744],[150.7762,-35.083],[150.751,-34.9908],[150.6711,-35.0372],[150.7016,-35.1229],[150.5495,-35.103],[150.5974,-35.1901],[150.478,-35.2918],[150.4925,-35.3663],[150.3928,-35.4646],[150.4063,-35.5339],[150.2766,-35.7235],[150.1773,-35.7031],[150.2372,-35.8017],[150.1502,-35.8911],[150.1486,-36.267],[149.9048,-36.9146],[149.9447,-37.054],[149.8725,-37.0832],[150.0049,-37.1413],[150.0518,-37.2623],[149.944,-37.2777],[149.9767,-37.5051],[148.1089,-36.8009],[148.2176,-36.5982],[148.1334,-36.5669],[148.1247,-36.4647],[148.0376,-36.3902],[147.9997,-36.0462],[147.7084,-35.9285],[147.5491,-35.9646],[147.5519,-36.0041],[147.4046,-35.9435],[147.3199,-36.061],[147.1234,-35.9945],[147.053,-36.1079],[146.9568,-36.0781],[146.9437,-36.116],[146.6125,-35.9729],[146.4217,-35.9658],[146.3687,-36.0509],[146.2829,-36.011],[146.186,-36.0421],[145.9721,-36.0157],[145.9027,-35.9525],[145.8117,-35.9918],[145.5354,-35.802],[145.3554,-35.8671],[145.1141,-35.8205],[144.9682,-35.8655],[144.9236,-35.9888],[144.9819,-36.0723],[144.8635,-36.0591],[144.7771,-36.1298],[144.689,-36.0614],[144.6177,-36.0772],[144.4079,-35.904],[144.3491,-35.7671],[144.2645,-35.7514],[143.9701,-35.5001],[143.751,-35.3878],[143.6204,-35.3877],[143.5621,-35.3372],[143.5708,-35.2069],[143.3947,-35.1924],[143.3221,-35.0367],[143.3479,-34.7916],[143.1125,-34.6808],[142.8868,-34.6798],[142.7914,-34.5464],[142.7,-34.5994],[142.6994,-34.7245],[142.6183,-34.7288],[142.6393,-34.7803],[142.5242,-34.7594],[142.468,-34.5643],[142.3677,-34.5304],[142.351,-34.3966],[142.3966,-34.3377],[142.2359,-34.307],[142.2207,-34.182],[142.0828,-34.1735],[142.0375,-34.0994],[141.9341,-34.1383],[141.6774,-34.1012],[141.5101,-34.2165],[141.4968,-34.1555],[141.3249,-34.1388],[141.2418,-34.0613],[141.185,-34.092],[141.0019,-34.0393],[140.9993,-28.9991],[148.9583,-28.9991],[149.0808,-28.8418],[149.3874,-28.6958],[149.503,-28.5744],[149.7031,-28.6337],[150.2896,-28.5372],[150.4456,-28.6651],[150.7523,-28.6335],[151.0106,-28.7408],[151.0453,-28.8445],[151.2748,-28.9389],[151.2796,-29.1008],[151.3938,-29.1779],[151.5456,-28.953],[151.7065,-28.8718],[151.7778,-28.9599],[151.8494,-28.9078],[152.0097,-28.9077],[152.076,-28.7082],[151.9556,-28.5189],[152.3862,-28.3686],[152.4636,-28.2594],[152.5342,-28.2626],[152.5792,-28.339],[152.6145,-28.2696],[152.7511,-28.3639],[152.88,-28.3096],[153.1088,-28.3575],[153.1779,-28.2475],[153.3612,-28.2483],[153.4769,-28.157],[153.5561,-28.1684],[153.4947,-28.2202],[153.5378,-28.1838],[153.5547,-28.236],[153.5565,-28.1701],[153.5863,-28.2582],[153.5533,-28.5312],[153.6387,-28.6361],[153.6088,-28.8433],[153.5269,-28.8729],[153.5901,-28.8776],[153.464,-29.0187],[153.4567,-29.1402],[153.3443,-29.2966],[153.334,-29.6746],[152.9885,-30.732],[153.0137,-30.8608],[153.0887,-30.9113],[153.0647,-31.0566],[152.9774,-31.1714],[152.9378,-31.4758],[152.8453,-31.5729],[152.7546,-31.8451],[152.6088,-31.9471],[152.5128,-32.117],[152.5709,-32.2156],[152.5237,-32.2944],[152.5399,-32.4435],[152.3356,-32.5271],[152.1957,-32.6479],[152.205,-32.7012],[151.9684,-32.6544],[151.9365,-32.7369],[152.0695,-32.736],[152.0638,-32.6985],[152.1868,-32.7411],[151.7866,-32.9199],[151.7338,-32.8776],[151.804,-32.9157],[151.6611,-33.0838],[151.6081,-32.9661],[151.6138,-33.0821],[151.5492,-33.0625],[151.5095,-33.1025],[151.5687,-33.1143],[151.5098,-33.1377],[151.5679,-33.1753],[151.5814,-33.1027],[151.5972,-33.1616],[151.6361,-33.0693],[151.6387,-33.1758],[151.5031,-33.3439],[151.5622,-33.2373],[151.5086,-33.2227],[151.4416,-33.3071],[151.5044,-33.3625],[151.4172,-33.5233],[151.3454,-33.5472],[151.3476,-33.5064],[151.2587,-33.5706],[151.2657,-33.4849],[151.227,-33.5305],[151.1976,-33.4952],[151.2375,-33.4538],[151.1994,-33.5361],[151.1664,-33.4267],[151.097,-33.4803],[151.0728,-33.4492],[151.1555,-33.4671],[151.1028,-33.5878],[151.1751,-33.5142],[151.2471,-33.5791],[151.1494,-33.6555],[151.293,-33.5719],[151.2698,-33.6562],[151.312,-33.6667],[151.3353,-33.5823],[151.3014,-33.8234],[151.2044,-33.7725],[151.2467,-33.8534],[151.1459,-33.829],[151.1455,-33.8241]],[[149.3993,-35.3192],[149.3948,-35.3032],[149.3619,-35.309],[149.3153,-35.2763],[149.272,-35.2736],[149.2731,-35.2593],[149.2349,-35.2428],[149.2468,-35.2292],[149.2386,-35.2221],[149.2049,-35.2295],[149.2086,-35.2115],[149.1897,-35.2033],[149.1891,-35.1657],[149.1209,-35.1245],[148.8079,-35.3096],[148.7932,-35.3392],[148.8087,-35.3824],[148.7858,-35.4087],[148.7889,-35.4264],[148.7671,-35.4654],[148.7744,-35.486],[148.7627,-35.4955],[148.773,-35.5682],[148.7888,-35.5882],[148.7685,-35.6032],[148.7835,-35.6283],[148.7675,-35.6473],[148.7984,-35.6665],[148.7912,-35.7034],[148.8557,-35.7609],[148.8725,-35.7214],[148.8866,-35.7191],[148.9033,-35.7578],[148.8866,-35.8101],[148.9071,-35.8296],[148.9094,-35.8531],[148.9591,-35.8955],[149.0122,-35.8997],[149.0488,-35.9204],[149.0644,-35.8749],[149.0957,-35.8457],[149.1015,-35.8037],[149.0907,-35.7656],[149.1095,-35.6966],[149.0954,-35.6793],[149.078,-35.5861],[149.1425,-35.5926],[149.1314,-35.5542],[149.1513,-35.5069],[149.1355,-35.4544],[149.1551,-35.4366],[149.1391,-35.4325],[149.1466,-35.4148],[149.2075,-35.3453],[149.2548,-35.3301],[149.3521,-35.3513],[149.3993,-35.3192]]]]}},{"type":"Feature","properties":{"STATE_CODE":"VIC","STATE_NAME":"Victoria","STATE_ABBR":"VIC"},"geometry":{"type":"MultiPolygon","coordinates":[[[[145.1319,-38.3907],[145.0324,-38.4865],[144.8873,-38.4989],[144.6519,-38.3041],[144.8147,-38.3685],[144.9232,-38.3493],[145.1185,-38.1457],[145.0995,-38.0269],[145.0179,-37.9818],[144.9703,-37.8608],[144.8971,-37.8426],[144.5068,-38.0915],[144.3616,-38.1051],[144.4781,-38.1645],[144.6922,-38.12],[144.7064,-38.2102],[144.6232,-38.2515],[144.6722,-38.2653],[144.3323,-38.3233],[144.0365,-38.4758],[143.837,-38.6928],[143.5109,-38.8576],[143.3566,-38.754],[143.233,-38.7664],[143.0808,-38.651],[142.8576,-38.6053],[142.3725,-38.3495],[142.1458,-38.3915],[141.9295,-38.2782],[141.742,-38.2531],[141.6016,-38.3132],[141.6264,-38.4063],[141.3743,-38.3868],[141.3921,-38.3197],[141.2953,-38.2206],[140.9657,-38.056],[140.9636,-33.9806],[141.0233,-34.0597],[141.2418,-34.0613],[141.3249,-34.1388],[141.495,-34.1546],[141.5101,-34.2165],[141.7297,-34.0909],[142.1656,-34.1521],[142.2437,-34.2099],[142.2359,-34.307],[142.3968,-34.3381],[142.351,-34.3966],[142.3677,-34.5304],[142.468,-34.5643],[142.4524,-34.6337],[142.5567,-34.7754],[142.699,-34.7251],[142.6894,-34.6166],[142.7914,-34.5464],[142.8868,-34.6798],[143.1125,-34.6808],[143.3479,-34.7916],[143.3221,-35.0367],[143.3947,-35.1924],[143.5708,-35.2069],[143.5621,-35.3372],[143.6204,-35.3877],[143.751,-35.3878],[143.9701,-35.5001],[144.2645,-35.7514],[144.3491,-35.7671],[144.5161,-35.9954],[144.7264,-36.1178],[144.9819,-36.0723],[144.9236,-35.9888],[144.9923,-35.8523],[145.1277,-35.8207],[145.3554,-35.8671],[145.5354,-35.802],[145.8117,-35.9918],[145.9027,-35.9525],[145.9721,-36.0157],[146.3687,-36.0509],[146.4217,-35.9658],[146.5026,-35.9582],[146.9437,-36.116],[146.9568,-36.0781],[147.053,-36.1079],[147.1234,-35.9945],[147.3199,-36.061],[147.4046,-35.9435],[147.5519,-36.0041],[147.5491,-35.9646],[147.7084,-35.9285],[147.9123,-35.9952],[148.0377,-36.1408],[148.0376,-36.3902],[148.1247,-36.4647],[148.1334,-36.5669],[148.2176,-36.5982],[148.1089,-36.8009],[149.9767,-37.5051],[149.7752,-37.5578],[149.6773,-37.6851],[149.485,-37.7754],[148.2896,-37.811],[147.7882,-37.9553],[146.8831,-38.6346],[146.9255,-38.5942],[146.5512,-38.7038],[146.2121,-38.6929],[146.1856,-38.7434],[146.2728,-38.806],[146.2926,-38.9046],[146.4786,-38.7918],[146.4893,-38.9105],[146.4318,-39.011],[146.4834,-39.061],[146.4311,-39.0655],[146.4265,-39.13],[146.3458,-39.1254],[146.3523,-39.0589],[146.1335,-38.8374],[146.0336,-38.8132],[145.9212,-38.9096],[145.7655,-38.6668],[145.6067,-38.6788],[145.4837,-38.556],[145.372,-38.5363],[145.4345,-38.4936],[145.4164,-38.407],[145.5489,-38.3717],[145.489,-38.2334],[145.2548,-38.2231],[145.1929,-38.2966],[145.222,-38.3778],[145.184,-38.3746],[145.2345,-38.4097],[145.1319,-38.3907]]]]}},{"type":"Feature","properties":{"STATE_CODE":"TAS","STATE_NAME":"Tasmania","STATE_ABBR":"TAS"},"geometry":{"type":"MultiPolygon","coordinates":[[[[148.4819,-40.4349],[148.3506,-40.4928],[148.3099,-40.4267],[148.0858,-40.4574],[147.9836,-40.4028],[148.3298,-40.2908],[148.4648,-40.4271],[148.4819,-40.4349]]],[[[144.7545,-41.0618],[144.6073,-41.0088],[144.6117,-40.9357],[144.7116,-40.8583],[144.6784,-40.7169],[144.7256,-40.6417],[144.7659,-40.7436],[144.7855,-40.7085],[144.9792,-40.7433],[145.1214,-40.838],[145.1672,-40.819],[145.1104,-40.7943],[145.259,-40.8058],[145.2603,-40.7123],[145.3215,-40.8497],[145.4354,-40.8943],[145.5116,-40.8536],[145.5605,-40.9168],[145.7293,-40.945],[145.7413,-40.9854],[145.6965,-40.9747],[145.8361,-41.057],[146.2484,-41.1571],[146.2507,-41.1966],[146.2554,-41.1518],[146.3569,-41.1585],[146.3886,-41.2382],[146.3698,-41.1675],[146.5319,-41.1184],[146.6068,-41.2594],[146.6096,-41.1585],[146.5645,-41.1465],[146.7684,-41.0789],[146.8201,-41.1377],[146.7706,-41.1653],[146.9231,-41.1698],[146.9706,-41.3092],[147.0769,-41.341],[147.1219,-41.4436],[147.156,-41.4174],[146.912,-41.212],[146.9654,-41.1901],[146.8278,-41.1363],[146.7866,-41.0541],[147.0209,-40.9803],[147.1579,-41.0314],[147.2798,-40.9417],[147.4345,-41.0119],[147.3971,-41.0029],[147.4907,-40.9793],[147.5948,-40.8491],[147.9042,-40.8777],[147.9388,-40.74],[148.0325,-40.751],[148.2228,-40.846],[148.3495,-40.9929],[148.2495,-41.0511],[148.2982,-41.0638],[148.2529,-41.1909],[148.3384,-41.26],[148.2358,-41.3228],[148.3591,-41.2796],[148.2493,-41.486],[148.3167,-41.5754],[148.2644,-41.8072],[148.3236,-41.9172],[148.2846,-42.039],[148.3462,-42.2238],[148.293,-42.2818],[148.2514,-42.2303],[148.2984,-42.1256],[148.1572,-42.0742],[148.2433,-41.9883],[148.0931,-42.0808],[148.2352,-42.0979],[148.0467,-42.1184],[148.0839,-42.1679],[147.9311,-42.3435],[148.0185,-42.315],[147.977,-42.441],[148.0105,-42.5104],[147.949,-42.5532],[147.9237,-42.4968],[147.8751,-42.5548],[147.9455,-42.6063],[147.9466,-42.728],[147.7905,-42.9031],[147.606,-42.8692],[147.5854,-42.7783],[147.4346,-42.7741],[147.6134,-42.8459],[147.5036,-42.8643],[147.5541,-42.9856],[147.4188,-43.0505],[147.392,-42.9757],[147.4688,-43.0267],[147.479,-42.9063],[147.4089,-42.9388],[147.2626,-42.7302],[147.1146,-42.7731],[147.1983,-42.7404],[147.3221,-42.8321],[147.3443,-43.0517],[147.2654,-43.0214],[147.3012,-43.0879],[147.2464,-43.1223],[147.261,-43.2235],[147.1677,-43.2834],[147.0889,-43.2432],[147.0825,-43.163],[147.0619,-43.2251],[146.9844,-43.1894],[147.0297,-43.0587],[146.95,-43.1638],[147.1001,-43.2902],[146.9824,-43.3301],[147.0593,-43.3531],[147.0176,-43.4435],[146.9236,-43.4156],[147.0018,-43.4797],[146.9006,-43.5162],[146.921,-43.6],[146.8709,-43.6386],[146.7851,-43.6003],[146.7055,-43.6334],[146.5594,-43.4649],[146.5961,-43.5435],[146.2901,-43.5447],[146.216,-43.4856],[146.2096,-43.5348],[146.148,-43.5015],[146.0311,-43.571],[145.9974,-43.4069],[145.9215,-43.3813],[145.9775,-43.3556],[145.9937,-43.3943],[145.9868,-43.3293],[146.1305,-43.3555],[146.1445,-43.4087],[146.1554,-43.3628],[146.2233,-43.3891],[146.2316,-43.3225],[146.1684,-43.2911],[146.1119,-43.3484],[146.0645,-43.2894],[146.0038,-43.3353],[145.9534,-43.2811],[145.98,-43.2348],[145.9173,-43.2114],[145.8625,-43.273],[145.9266,-43.3005],[145.8412,-43.3153],[145.7362,-43.1167],[145.665,-43.0962],[145.6822,-43.0505],[145.5906,-42.9725],[145.4949,-42.9915],[145.3662,-42.6565],[145.2629,-42.6216],[145.3044,-42.5712],[145.1655,-42.197],[145.4533,-42.4044],[145.4739,-42.5258],[145.458,-42.4348],[145.6182,-42.4455],[145.5131,-42.4345],[145.5576,-42.357],[145.5124,-42.3742],[145.4941,-42.3219],[145.4809,-42.3645],[145.3339,-42.1518],[145.2897,-42.2273],[145.2231,-42.2187],[145.2637,-42.1123],[145.2041,-41.9368],[144.9112,-41.6912],[145.0506,-41.6013],[144.9209,-41.6676],[144.7459,-41.4215],[144.7899,-41.3951],[144.6835,-41.2348],[144.6593,-41.0574],[144.7462,-41.0564],[144.7545,-41.0618]]],[[[148.3343,-40.2083],[148.1221,-40.274],[148.0461,-40.2495],[148.007,-40.1054],[147.859,-40.0234],[147.9068,-39.9762],[147.88,-39.9073],[147.7482,-39.8738],[147.8438,-39.8371],[147.848,-39.7507],[147.9634,-39.7271],[148.1772,-39.9521],[148.2911,-39.9651],[148.2863,-40.0679],[148.2233,-40.121],[148.2877,-40.0808],[148.3148,-40.1741],[148.3343,-40.2083]]],[[[148.0115,-43.2217],[147.8966,-43.191],[147.8633,-43.1079],[147.8746,-43.2064],[147.7856,-43.238],[147.6851,-43.1387],[147.7421,-43.0949],[147.6271,-43.0735],[147.6191,-43.0066],[147.6793,-42.9918],[147.6789,-42.9345],[147.7314,-42.9572],[147.7185,-43.028],[147.8603,-43.0573],[147.925,-43.0159],[147.8469,-43.0131],[147.8113,-42.9623],[147.8659,-42.947],[147.8029,-42.8932],[147.9709,-42.8642],[147.9995,-42.9642],[147.9264,-43.0212],[147.9544,-43.1366],[148.0058,-43.1391],[147.9637,-43.1917],[148.0115,-43.2217]]],[[[147.2028,-43.437],[147.1465,-43.4968],[147.0939,-43.4284],[147.1799,-43.4583],[147.1791,-43.3526],[147.2345,-43.3641],[147.2909,-43.2418],[147.3058,-43.297],[147.3579,-43.2558],[147.379,-43.176],[147.276,-43.1665],[147.3559,-43.1408],[147.3066,-43.1136],[147.3512,-43.0639],[147.4302,-43.2521],[147.3223,-43.304],[147.382,-43.3718],[147.3239,-43.5026],[147.2466,-43.4927],[147.2459,-43.4404],[147.2028,-43.437]]],[[[144.1382,-39.9338],[144.1055,-40.0444],[143.9257,-40.158],[143.8753,-40.1168],[143.8442,-39.7156],[143.9458,-39.5805],[144.1097,-39.67],[144.1356,-39.9244],[144.1382,-39.9338]]]]}},{"type":"Feature","properties":{"STATE_CODE":"ACT","STATE_NAME":"Australian Capital Territory","STATE_ABBR":"ACT"},"geometry":{"type":"MultiPolygon","coordinates":[[[[149.3993,-35.3192],[149.3521,-35.3513],[149.2548,-35.3301],[149.2075,-35.3453],[149.1466,-35.4148],[149.1391,-35.4325],[149.1551,-35.4366],[149.1355,-35.4544],[149.1513,-35.5069],[149.1314,-35.5542],[149.1425,-35.5926],[149.078,-35.5861],[149.0954,-35.6793],[149.1095,-35.6966],[149.0907,-35.7656],[149.1015,-35.8037],[149.0957,-35.8457],[149.0644,-35.8749],[149.0488,-35.9204],[149.0122,-35.8997],[148.9591,-35.8955],[148.9094,-35.8531],[148.9071,-35.8296],[148.8866,-35.8101],[148.9033,-35.7578],[148.8866,-35.7191],[148.8725,-35.7214],[148.8557,-35.7609],[148.7912,-35.7034],[148.7984,-35.6665],[148.7675,-35.6473],[148.7835,-35.6283],[148.7685,-35.6032],[148.7888,-35.5882],[148.773,-35.5682],[148.7627,-35.4955],[148.7744,-35.486],[148.7671,-35.4654],[148.7889,-35.4264],[148.7858,-35.4087],[148.8087,-35.3824],[148.7932,-35.3392],[148.8079,-35.3096],[149.1209,-35.1245],[149.1891,-35.1657],[149.1897,-35.2033],[149.2086,-35.2115],[149.2049,-35.2295],[149.2386,-35.2221],[149.2468,-35.2292],[149.2349,-35.2428],[149.2731,-35.2593],[149.272,-35.2736],[149.3153,-35.2763],[149.3619,-35.309],[149.3948,-35.3032],[149.3993,-35.3192]]]]}}]}